ION SCV-004             
1 50993U 22002K   26068.68892644  .00006538  00000+0  23198-3 0  9998
2 50993  97.2961 128.2294 0007216   1.6783 358.4480 15.29369331230088
STARLINK-34169          
1 63999U 25101F   26068.20851524  .00033841  00000+0  12346-2 0  9990
2 63999  43.0053   0.5107 0001919 260.2441  99.8194 15.27555344 46983
